{"type": "FeatureCollection", "features": [ {"type": "Feature", "properties": {"norad_id": 34058, "name": "COSMOS 2251 DEB", "group": "cosmos-2251-debris", "lat": 58.18223367203008, "lon": -13.749120967784018, "alt_km": 953.3708853666021, "timestamp": "2025-12-02T23:34:15.910754+00:00", "meta": {"OBJECT_NAME": "COSMOS 2251 DEB", "OBJECT_ID": "1993-036JV", "EPOCH": "2025-12-02T07:38:42.154080", "MEAN_MOTION": 13.56054583, "ECCENTRICITY": 0.0378376, "INCLINATION": 73.9322, "RA_OF_ASC_NODE": 195.0038, "ARG_OF_PERICENTER": 192.2255, "MEAN_ANOMALY": 291.3893, "EPHEMERIS_TYPE": 0, "CLASSIFICATION_TYPE": "U", "NORAD_CAT_ID": 34058, "ELEMENT_SET_NO": 999, "REV_AT_EPOCH": 83001, "BSTAR": 0.00060398, "MEAN_MOTION_DOT": 6.49e-06, "MEAN_MOTION_DDOT": 0}, "tle": {"line1": "1 34058U 93036JV  25336.31854345  .00000649  00000+0  60398-3 0  9990", "line2": "2 34058  73.9322 195.0038 0378376 192.2255 291.3893 13.56054583830011"}}, "geometry": {"type": "Point", "coordinates": [-13.749120967784018, 58.18223367203008]}}, {"type": "Feature", "properties": {"norad_id": 34059, "name": "COSMOS 2251 DEB", "group": "cosmos-2251-debris", "lat": -3.8535275697152054, "lon": 25.786964200759193, "alt_km": 721.4895446702594, "timestamp": "2025-12-02T23:34:15.910765+00:00", "meta": {"OBJECT_NAME": "COSMOS 2251 DEB", "OBJECT_ID": "1993-036JW", "EPOCH": "2025-12-02T08:23:47.279328", "MEAN_MOTION": 14.52849389, "ECCENTRICITY": 0.0018869, "INCLINATION": 74.0387, "RA_OF_ASC_NODE": 205.8744, "ARG_OF_PERICENTER": 284.0596, "MEAN_ANOMALY": 194.4258, "EPHEMERIS_TYPE": 0, "CLASSIFICATION_TYPE": "U", "NORAD_CAT_ID": 34059, "ELEMENT_SET_NO": 999, "REV_AT_EPOCH": 88308, "BSTAR": 0.00094101, "MEAN_MOTION_DOT": 3.853e-05, "MEAN_MOTION_DDOT": 0}, "tle": {"line1": "1 34059U 93036JW  25336.34985277  .00003853  00000+0  94101-3 0  9992", "line2": "2 34059  74.0387 205.8744 0018869 284.0596 194.4258 14.52849389883081"}}, "geometry": {"type": "Point", "coordinates": [25.786964200759193, -3.8535275697152054]}}, {"type": "Feature", "properties": {"norad_id": 34061, "name": "COSMOS 2251 DEB", "group": "cosmos-2251-debris", "lat": -65.96591689678802, "lon": 141.34944506686452, "alt_km": 768.806066912779, "timestamp": "2025-12-02T23:34:15.910775+00:00", "meta": {"OBJECT_NAME": "COSMOS 2251 DEB", "OBJECT_ID": "1993-036JY", "EPOCH": "2025-12-02T08:08:43.810944", "MEAN_MOTION": 14.40316905, "ECCENTRICITY": 0.0020104, "INCLINATION": 74.039, "RA_OF_ASC_NODE": 282.6126, "ARG_OF_PERICENTER": 1.4074, "MEAN_ANOMALY": 159.2559, "EPHEMERIS_TYPE": 0, "CLASSIFICATION_TYPE": "U", "NORAD_CAT_ID": 34061, "ELEMENT_SET_NO": 999, "REV_AT_EPOCH": 88030, "BSTAR": 0.00050165, "MEAN_MOTION_DOT": 1.568e-05, "MEAN_MOTION_DDOT": 0}, "tle": {"line1": "1 34061U 93036JY  25336.33939596  .00001568  00000+0  50165-3 0  9990", "line2": "2 34061  74.0390 282.6126 0020104   1.4074 159.2559 14.40316905880307"}}, "geometry": {"type": "Point", "coordinates": [141.34944506686452, -65.96591689678802]}}, {"type": "Feature", "properties": {"norad_id": 34062, "name": "COSMOS 2251 DEB", "group": "cosmos-2251-debris", "lat": 58.54105760413007, "lon": -50.6971875863215, "alt_km": 656.5572481503114, "timestamp": "2025-12-02T23:34:15.910785+00:00", "meta": {"OBJECT_NAME": "COSMOS 2251 DEB", "OBJECT_ID": "1993-036JZ", "EPOCH": "2025-12-02T11:47:39.246144", "MEAN_MOTION": 14.78017729, "ECCENTRICITY": 0.0076447, "INCLINATION": 74.0272, "RA_OF_ASC_NODE": 158.1811, "ARG_OF_PERICENTER": 239.1607, "MEAN_ANOMALY": 149.1209, "EPHEMERIS_TYPE": 0, "CLASSIFICATION_TYPE": "U", "NORAD_CAT_ID": 34062, "ELEMENT_SET_NO": 999, "REV_AT_EPOCH": 88444, "BSTAR": 0.0028133, "MEAN_MOTION_DOT": 0.00021356, "MEAN_MOTION_DDOT": 0}, "tle": {"line1": "1 34062U 93036JZ  25336.49142646  .00021356  00000+0  28133-2 0  9996", "line2": "2 34062  74.0272 158.1811 0076447 239.1607 149.1209 14.78017729884440"}}, "geometry": {"type": "Point", "coordinates": [-50.6971875863215, 58.54105760413007]}}, {"type": "Feature", "properties": {"norad_id": 34064, "name": "COSMOS 2251 DEB", "group": "cosmos-2251-debris", "lat": 22.42029018516434, "lon": 102.1852726115437, "alt_km": 764.8417424069348, "timestamp": "2025-12-02T23:34:15.910794+00:00", "meta": {"OBJECT_NAME": "COSMOS 2251 DEB", "OBJECT_ID": "1993-036KB", "EPOCH": "2025-12-02T06:46:05.478240", "MEAN_MOTION": 14.42273504, "ECCENTRICITY": 0.0021737, "INCLINATION": 74.0324, "RA_OF_ASC_NODE": 290.2677, "ARG_OF_PERICENTER": 358.2183, "MEAN_ANOMALY": 124.5297, "EPHEMERIS_TYPE": 0, "CLASSIFICATION_TYPE": "U", "NORAD_CAT_ID": 34064, "ELEMENT_SET_NO": 999, "REV_AT_EPOCH": 87991, "BSTAR": 0.00073928, "MEAN_MOTION_DOT": 2.42e-05, "MEAN_MOTION_DDOT": 0}, "tle": {"line1": "1 34064U 93036KB  25336.28200785  .00002420  00000+0  73928-3 0  9998", "line2": "2 34064  74.0324 290.2677 0021737 358.2183 124.5297 14.42273504879918"}}, "geometry": {"type": "Point", "coordinates": [102.1852726115437, 22.42029018516434]}}, {"type": "Feature", "properties": {"norad_id": 34065, "name": "COSMOS 2251 DEB", "group": "cosmos-2251-debris", "lat": -39.30454014522729, "lon": -97.45897350427818, "alt_km": 764.8918210588172, "timestamp": "2025-12-02T23:34:15.910805+00:00", "meta": {"OBJECT_NAME": "COSMOS 2251 DEB", "OBJECT_ID": "1993-036KC", "EPOCH": "2025-12-02T07:37:54.990048", "MEAN_MOTION": 14.38043276, "ECCENTRICITY": 0.0015894, "INCLINATION": 74.0356, "RA_OF_ASC_NODE": 277.3164, "ARG_OF_PERICENTER": 17.2779, "MEAN_ANOMALY": 104.9596, "EPHEMERIS_TYPE": 0, "CLASSIFICATION_TYPE": "U", "NORAD_CAT_ID": 34065, "ELEMENT_SET_NO": 999, "REV_AT_EPOCH": 88055, "BSTAR": 0.00023911, "MEAN_MOTION_DOT": 6.99e-06, "MEAN_MOTION_DDOT": 0}, "tle": {"line1": "1 34065U 93036KC  25336.31799757  .00000699  00000+0  23911-3 0  9998", "line2": "2 34065  74.0356 277.3164 0015894  17.2779 104.9596 14.38043276880553"}}, "geometry": {"type": "Point", "coordinates": [-97.45897350427818, -39.30454014522729]}}, {"type": "Feature", "properties": {"norad_id": 34070, "name": "COSMOS 2251 DEB", "group": "cosmos-2251-debris", "lat": -68.10427894477928, "lon": 89.8702785065434, "alt_km": 636.5012658023497, "timestamp": "2025-12-02T23:34:15.910815+00:00", "meta": {"OBJECT_NAME": "COSMOS 2251 DEB", "OBJECT_ID": "1993-036KH", "EPOCH": "2025-12-02T11:00:08.224992", "MEAN_MOTION": 14.7641788, "ECCENTRICITY": 0.0019347, "INCLINATION": 73.9995, "RA_OF_ASC_NODE": 136.4557, "ARG_OF_PERICENTER": 250.257, "MEAN_ANOMALY": 132.3994, "EPHEMERIS_TYPE": 0, "CLASSIFICATION_TYPE": "U", "NORAD_CAT_ID": 34070, "ELEMENT_SET_NO": 999, "REV_AT_EPOCH": 88459, "BSTAR": 0.0030621, "MEAN_MOTION_DOT": 0.00021393, "MEAN_MOTION_DDOT": 0}, "tle": {"line1": "1 34070U 93036KH  25336.45842853  .00021393  00000+0  30621-2 0  9994", "line2": "2 34070  73.9995 136.4557 0019347 250.2570 132.3994 14.76417880884595"}}, "geometry": {"type": "Point", "coordinates": [89.8702785065434, -68.10427894477928]}}, {"type": "Feature", "properties": {"norad_id": 34114, "name": "COSMOS 2251 DEB", "group": "cosmos-2251-debris", "lat": 45.16032282566481, "lon": -134.38707101894403, "alt_km": 690.6993845765701, "timestamp": "2025-12-02T23:34:15.910825+00:00", "meta": {"OBJECT_NAME": "COSMOS 2251 DEB", "OBJECT_ID": "1993-036KK", "EPOCH": "2025-12-02T08:28:21.525024", "MEAN_MOTION": 14.5612568, "ECCENTRICITY": 0.0047237, "INCLINATION": 74.0599, "RA_OF_ASC_NODE": 63.5065, "ARG_OF_PERICENTER": 62.2346, "MEAN_ANOMALY": 13.2183, "EPHEMERIS_TYPE": 0, "CLASSIFICATION_TYPE": "U", "NORAD_CAT_ID": 34114, "ELEMENT_SET_NO": 999, "REV_AT_EPOCH": 87650, "BSTAR": 0.0022325, "MEAN_MOTION_DOT": 9.985e-05, "MEAN_MOTION_DDOT": 0}, "tle": {"line1": "1 34114U 93036KK  25336.35302691  .00009985  00000+0  22325-2 0  9998", "line2": "2 34114  74.0599  63.5065 0047237  62.2346  13.2183 14.56125680876502"}}, "geometry": {"type": "Point", "coordinates": [-134.38707101894403, 45.16032282566481]}}, {"type": "Feature", "properties": {"norad_id": 34115, "name": "COSMOS 2251 DEB", "group": "cosmos-2251-debris", "lat": 24.42547593583279, "lon": 73.69204072045189, "alt_km": 622.944626186023, "timestamp": "2025-12-02T23:34:15.910835+00:00", "meta": {"OBJECT_NAME": "COSMOS 2251 DEB", "OBJECT_ID": "1993-036KL", "EPOCH": "2025-12-02T05:01:24.574080", "MEAN_MOTION": 14.79213518, "ECCENTRICITY": 0.0028208, "INCLINATION": 74.0069, "RA_OF_ASC_NODE": 262.6988, "ARG_OF_PERICENTER": 89.361, "MEAN_ANOMALY": 271.0798, "EPHEMERIS_TYPE": 0, "CLASSIFICATION_TYPE": "U", "NORAD_CAT_ID": 34115, "ELEMENT_SET_NO": 999, "REV_AT_EPOCH": 89256, "BSTAR": 0.0013895, "MEAN_MOTION_DOT": 0.00010369, "MEAN_MOTION_DDOT": 0}, "tle": {"line1": "1 34115U 93036KL  25336.20931220  .00010369  00000+0  13895-2 0  9999", "line2": "2 34115  74.0069 262.6988 0028208  89.3610 271.0798 14.79213518892565"}}, "geometry": {"type": "Point", "coordinates": [73.69204072045189, 24.42547593583279]}}, {"type": "Feature", "properties": {"norad_id": 34116, "name": "COSMOS 2251 DEB", "group": "cosmos-2251-debris", "lat": -33.24949385590978, "lon": -169.63348759551144, "alt_km": 716.2234242317372, "timestamp": "2025-12-02T23:34:15.910846+00:00", "meta": {"OBJECT_NAME": "COSMOS 2251 DEB", "OBJECT_ID": "1993-036KM", "EPOCH": "2025-12-02T02:48:34.614720", "MEAN_MOTION": 14.52877795, "ECCENTRICITY": 0.00123213, "INCLINATION": 74.0407, "RA_OF_ASC_NODE": 202.8109, "ARG_OF_PERICENTER": 278.9141, "MEAN_ANOMALY": 203.5687, "EPHEMERIS_TYPE": 0, "CLASSIFICATION_TYPE": "U", "NORAD_CAT_ID": 34116, "ELEMENT_SET_NO": 999, "REV_AT_EPOCH": 88332, "BSTAR": 0.00080268187, "MEAN_MOTION_DOT": 3.28e-05, "MEAN_MOTION_DDOT": 0}, "tle": {"line1": "1 34116U 93036KM  25336.11706730  .00003280  00000+0  80268-3 0  9999", "line2": "2 34116  74.0407 202.8109 0012321 278.9141 203.5687 14.52877795883322"}}, "geometry": {"type": "Point", "coordinates": [-169.63348759551144, -33.24949385590978]}}]}